STARLINK-37536          
1 69508U 26133A   26184.41675926 -.02445007  00000+0 -39138-1 0  9992
2 69508  53.1587 241.2036 0001263  69.8750  83.5581 15.56319780  4586
STARLINK-37341          
1 69509U 26133B   26184.41675926 -.02574218  00000+0 -43409-1 0  9996
2 69509  53.1589 241.2092 0001222  71.3943  79.4134 15.54502392  4587
STARLINK-36536          
1 69510U 26133C   26184.41675926 -.02528389  00000+0 -23170-1 0  9999
2 69510  53.1596 240.7891 0000846  72.1792 284.8965 15.70459241  4520
STARLINK-37420          
1 69511U 26133D   26184.41675926 -.02580693  00000+0 -18899-1 0  9998
2 69511  53.1591 240.6978 0001077  59.6532 341.0397 15.75703443  4470
STARLINK-37511          
1 69512U 26133E   26184.41675926 -.02502119  00000+0 -18810-1 0  9999
2 69512  53.1588 240.7092 0001032  57.5217 338.1430 15.75609622  4472
STARLINK-37552          
1 69513U 26133F   26184.41675926 -.02163482  00000+0 -39051-1 0  9996
2 69513  53.1591 241.1905 0001150  46.0894 112.7744 15.52609549  4477
STARLINK-37607          
1 69514U 26133G   26184.41675926 -.02596054  00000+0 -20501-1 0  9992
2 69514  53.1593 240.6606 0001153  57.5386   1.4178 15.74009547  4479
STARLINK-37232          
1 69515U 26133H   26184.41675926 -.02504424  00000+0 -38195-1 0  9991
2 69515  53.1595 240.9461 0001266  93.0078 185.0743 15.57699584  4476
STARLINK-37323          
1 69516U 26133J   26183.76718892 -.00672361  00000+0 -37958-2 0  9990
2 69516  53.1576 243.8315 0000457  84.7315 275.3759 15.80182543  4498
STARLINK-37357          
1 69517U 26133K   26184.41675926 -.01616282  00000+0 -31063-1 0  9995
2 69517  53.1591 241.1724 0000705  56.8408 109.1779 15.50446394  4478
STARLINK-37408          
1 69518U 26133L   26184.41675926 -.02509352  00000+0 -25799-1 0  9995
2 69518  53.1592 240.6569 0001096  62.5992 357.0600 15.67674319  4472
STARLINK-37570          
1 69519U 26133M   26184.41675926 -.02227310  00000+0 -37418-1 0  9998
2 69519  53.1592 240.9471 0001286  99.5726 176.4601 15.54667213  4479
STARLINK-37510          
1 69520U 26133N   26184.41675926 -.02442301  00000+0 -38307-1 0  9997
2 69520  53.1591 240.9140 0001188  93.9129 199.1342 15.56857186  4475
STARLINK-37586          
1 69521U 26133P   26183.68865575 -.00740633  00000+0 -42036-2 0  9999
2 69521  53.1574 244.0435 0000760  75.1312 284.9795 15.80238285  4497
STARLINK-37379          
1 69522U 26133Q   26184.41675926 -.02502592  00000+0 -33100-1 0  9994
2 69522  53.1589 240.6598 0000808  80.7932 335.7200 15.61397118  4529
STARLINK-37429          
1 69523U 26133R   26184.41675926 -.03205446  00000+0 -59725-1 0  9995
2 69523  53.1596 240.9913 0001764 107.0587 146.3411 15.51985829  4524
STARLINK-37352          
1 69524U 26133S   26184.41675926 -.02511703  00000+0 -34397-1 0  9999
2 69524  53.1586 240.6310 0000879  79.8466 350.5278 15.60517561  4524
STARLINK-37490          
1 69525U 26133T   26184.41675926 -.02567435  00000+0 -24051-1 0  9999
2 69525  53.1589 240.3604 0001263  84.3292 117.9870 15.69987773  4525
STARLINK-37438          
1 69526U 26133U   26184.41675926 -.02492480  00000+0 -40105-1 0  9995
2 69526  53.1593 240.7373 0000885  92.5586 285.1566 15.56265328  4525
STARLINK-37484          
1 69527U 26133V   26184.41675926 -.02507131  00000+0 -22027-1 0  9999
2 69527  53.1593 240.3273 0001389  86.0715 132.4999 15.71416000  4529
STARLINK-37523          
1 69528U 26133W   26184.41675926 -.02502044  00000+0 -37355-1 0  9998
2 69528  53.1588 240.5841 0000921  77.6328  14.4998 15.58258569  4521
STARLINK-37369          
1 69529U 26133X   26184.41675926 -.02468185  00000+0 -36081-1 0  9991
2 69529  53.1588 240.5520 0001085  63.1732  44.3050 15.58753104  4523
STARLINK-37670          
1 69530U 26133Y   26184.41675926 -.02555374  00000+0 -43633-1 0  9991
2 69530  53.1595 240.6562 0001031  57.3628 358.3583 15.54139938  4528
STARLINK-37897          
1 69531U 26133Z   26184.41675926 -.02543527  00000+0 -24547-1 0  9992
2 69531  53.1594 240.2347 0001173  90.9137 171.1492 15.69246424  4480
STARLINK-37933          
1 69532U 26133AA  26184.41675926 -.02351064  00000+0 -32644-1 0  9993
2 69532  53.1586 240.3883 0001487  73.8825 112.7002 15.59901872  4482
STARLINK-37890          
1 69533U 26133AB  26184.41675926 -.02497174  00000+0 -31327-1 0  9994
2 69533  53.1594 240.2713 0001393  88.9099 154.4007 15.62725852  4483
STARLINK-37407          
1 69534U 26133AC  26184.41675926 -.02538207  00000+0 -29136-1 0  9993
2 69534  53.1592 240.1855 0001178  94.9730 189.4763 15.65014782  4526
STARLINK-37888          
1 69535U 26133AD  26184.41675926 -.02525631  00000+0 -32311-1 0  9990
2 69535  53.1593 240.1496 0001168  93.0346 208.2096 15.62276480  4487
STARLINK-37889          
1 69536U 26133AE  26184.41675926 -.01052802  00000+0 -17626-1 0  9997
2 69536  53.1587 240.9698 0000966  69.1249 196.7813 15.53949423  4475
