OBJECT_NAME,OBJECT_ID,EPOCH,MEAN_MOTION,ECCENTRICITY,INCLINATION,RA_OF_ASC_NODE,ARG_OF_PERICENTER,MEAN_ANOMALY,EPHEMERIS_TYPE,CLASSIFICATION_TYPE,NORAD_CAT_ID,ELEMENT_SET_NO,REV_AT_EPOCH,BSTAR,MEAN_MOTION_DOT,MEAN_MOTION_DDOT
STARLINK-37536,2026-133A,2026-07-03T10:00:08.000064,15.56319780,.00012631,53.1587,241.2036,69.8750,83.5581,0,U,69508,999,458,-.39138201E-1,-.2445007E-1,0
STARLINK-37341,2026-133B,2026-07-03T10:00:08.000064,15.54502392,.00012227,53.1589,241.2092,71.3943,79.4134,0,U,69509,999,458,-.43409082E-1,-.2574218E-1,0
STARLINK-36536,2026-133C,2026-07-03T10:00:08.000064,15.70459241,.00008465,53.1596,240.7891,72.1792,284.8965,0,U,69510,999,452,-.23169755E-1,-.2528389E-1,0
STARLINK-37420,2026-133D,2026-07-03T10:00:08.000064,15.75703443,.00010771,53.1591,240.6978,59.6532,341.0397,0,U,69511,999,447,-.1889853E-1,-.2580693E-1,0
STARLINK-37511,2026-133E,2026-07-03T10:00:08.000064,15.75609622,.00010323,53.1588,240.7092,57.5217,338.1430,0,U,69512,999,447,-.18809854E-1,-.2502119E-1,0
STARLINK-37552,2026-133F,2026-07-03T10:00:08.000064,15.52609549,.00011504,53.1591,241.1905,46.0894,112.7744,0,U,69513,999,447,-.39051179E-1,-.2163482E-1,0
STARLINK-37607,2026-133G,2026-07-03T10:00:08.000064,15.74009547,.00011537,53.1593,240.6606,57.5386,1.4178,0,U,69514,999,447,-.20501444E-1,-.2596054E-1,0
STARLINK-37232,2026-133H,2026-07-03T10:00:08.000064,15.57699584,.00012666,53.1595,240.9461,93.0078,185.0743,0,U,69515,999,447,-.38194822E-1,-.2504424E-1,0
STARLINK-37323,2026-133J,2026-07-02T18:24:45.122688,15.80182543,.0000457,53.1576,243.8315,84.7315,275.3759,0,U,69516,999,449,-.37957952E-2,-.672361E-2,0
STARLINK-37357,2026-133K,2026-07-03T10:00:08.000064,15.50446394,.00007058,53.1591,241.1724,56.8408,109.1779,0,U,69517,999,447,-.31062692E-1,-.1616282E-1,0
STARLINK-37408,2026-133L,2026-07-03T10:00:08.000064,15.67674319,.00010965,53.1592,240.6569,62.5992,357.0600,0,U,69518,999,447,-.25799383E-1,-.2509352E-1,0
STARLINK-37570,2026-133M,2026-07-03T10:00:08.000064,15.54667213,.00012867,53.1592,240.9471,99.5726,176.4601,0,U,69519,999,447,-.37418012E-1,-.222731E-1,0
STARLINK-37510,2026-133N,2026-07-03T10:00:08.000064,15.56857186,.00011881,53.1591,240.9140,93.9129,199.1342,0,U,69520,999,447,-.38306854E-1,-.2442301E-1,0
STARLINK-37586,2026-133P,2026-07-02T16:31:39.856800,15.80238285,.00007609,53.1574,244.0435,75.1312,284.9795,0,U,69521,999,449,-.42036124E-2,-.740633E-2,0
STARLINK-37379,2026-133Q,2026-07-03T10:00:08.000064,15.61397118,.00008081,53.1589,240.6598,80.7932,335.7200,0,U,69522,999,452,-.33099577E-1,-.2502592E-1,0
STARLINK-37429,2026-133R,2026-07-03T10:00:08.000064,15.51985829,.0001764,53.1596,240.9913,107.0587,146.3411,0,U,69523,999,452,-.59724607E-1,-.3205446E-1,0
STARLINK-37352,2026-133S,2026-07-03T10:00:08.000064,15.60517561,.00008793,53.1586,240.6310,79.8466,350.5278,0,U,69524,999,452,-.34397281E-1,-.2511703E-1,0
STARLINK-37490,2026-133T,2026-07-03T10:00:08.000064,15.69987773,.00012637,53.1589,240.3604,84.3292,117.9870,0,U,69525,999,452,-.2405144E-1,-.2567435E-1,0
STARLINK-37438,2026-133U,2026-07-03T10:00:08.000064,15.56265328,.0000885,53.1593,240.7373,92.5586,285.1566,0,U,69526,999,452,-.40105056E-1,-.249248E-1,0
STARLINK-37484,2026-133V,2026-07-03T10:00:08.000064,15.71416000,.00013893,53.1593,240.3273,86.0715,132.4999,0,U,69527,999,452,-.2202666E-1,-.2507131E-1,0
STARLINK-37523,2026-133W,2026-07-03T10:00:08.000064,15.58258569,.00009219,53.1588,240.5841,77.6328,14.4998,0,U,69528,999,452,-.37355112E-1,-.2502044E-1,0
STARLINK-37369,2026-133X,2026-07-03T10:00:08.000064,15.58753104,.00010858,53.1588,240.5520,63.1732,44.3050,0,U,69529,999,452,-.3608105E-1,-.2468185E-1,0
STARLINK-37670,2026-133Y,2026-07-03T10:00:08.000064,15.54139938,.00010316,53.1595,240.6562,57.3628,358.3583,0,U,69530,999,452,-.43632969E-1,-.2555374E-1,0
STARLINK-37897,2026-133Z,2026-07-03T10:00:08.000064,15.69246424,.00011732,53.1594,240.2347,90.9137,171.1492,0,U,69531,999,448,-.24546651E-1,-.2543527E-1,0
STARLINK-37933,2026-133AA,2026-07-03T10:00:08.000064,15.59901872,.0001487,53.1586,240.3883,73.8825,112.7002,0,U,69532,999,448,-.32644087E-1,-.2351064E-1,0
STARLINK-37890,2026-133AB,2026-07-03T10:00:08.000064,15.62725852,.00013934,53.1594,240.2713,88.9099,154.4007,0,U,69533,999,448,-.31327266E-1,-.2497174E-1,0
STARLINK-37407,2026-133AC,2026-07-03T10:00:08.000064,15.65014782,.00011782,53.1592,240.1855,94.9730,189.4763,0,U,69534,999,452,-.29135891E-1,-.2538207E-1,0
STARLINK-37888,2026-133AD,2026-07-03T10:00:08.000064,15.62276480,.00011689,53.1593,240.1496,93.0346,208.2096,0,U,69535,999,448,-.32311153E-1,-.2525631E-1,0
STARLINK-37889,2026-133AE,2026-07-03T10:00:08.000064,15.53949423,.00009666,53.1587,240.9698,69.1249,196.7813,0,U,69536,999,447,-.17626293E-1,-.1052802E-1,0
